STARLINK-32264
1 61642U 24191X   26090.83335647  .00183864  00000+0  47660-2 0  9996
2 61642  42.9989  31.2506 0010920 202.0294 105.1746 15.37538143  5908
